{
    "links": {
        "self": "http://www.neowsapp.com/rest/v1/neo/3552670?api_key=iIulBulltgU6a56xZRHN4H3l9WmuAYTsLGpBGhQ2"
    },
    "id": "3552670",
    "neo_reference_id": "3552670",
    "name": "(2010 XF)",
    "designation": "2010 XF",
    "nasa_jpl_url": "http://ssd.jpl.nasa.gov/sbdb.cgi?sstr=3552670",
    "absolute_magnitude_h": 25.0,
    "estimated_diameter": {
        "kilometers": {
            "estimated_diameter_min": 0.02658,
            "estimated_diameter_max": 0.0594346868
        },
        "meters": {
            "estimated_diameter_min": 26.58,
            "estimated_diameter_max": 59.4346868419
        },
        "miles": {
            "estimated_diameter_min": 0.0165160412,
            "estimated_diameter_max": 0.0369309908
        },
        "feet": {
            "estimated_diameter_min": 87.2047272,
            "estimated_diameter_max": 194.9956979785
        }
    },
    "is_potentially_hazardous_asteroid": false,
    "close_approach_data": [
        {
            "close_approach_date": "2010-11-21",
            "close_approach_date_full": "2010-Nov-21 17:28",
            "epoch_date_close_approach": 1290360480000,
            "relative_velocity": {
                "kilometers_per_second": "8.1110028802",
                "kilometers_per_hour": "29199.6103688047",
                "miles_per_hour": "18143.502342772"
            },
            "miss_distance": {
                "astronomical": "0.101433887",
                "lunar": "39.457782043",
                "kilometers": "15174293.44102069",
                "miles": "9428868.721797922"
            },
            "orbiting_body": "Earth"
        }
    ],
    "orbital_data": {
        "orbit_id": "6",
        "orbit_determination_date": "2017-04-06 08:55:29",
        "first_observation_date": "2010-12-01",
        "last_observation_date": "2010-12-02",
        "data_arc_in_days": 1,
        "observations_used": 20,
        "orbit_uncertainty": "9",
        "minimum_orbit_intersection": ".101414",
        "jupiter_tisserand_invariant": "4.559",
        "epoch_osculation": "2455531.5",
        "eccentricity": ".2793541424234064",
        "semi_major_axis": "1.457833123242287",
        "inclination": "13.21488536499014",
        "ascending_node_longitude": "250.6409405672827",
        "orbital_period": "642.924753759313",
        "perihelion_distance": "1.050581401302502",
        "perihelion_argument": "140.7735885781959",
        "aphelion_distance": "1.865084845182073",
        "perihelion_time": "2455495.104785851735",
        "mean_anomaly": "20.37917659378286",
        "mean_motion": ".5599411095855402",
        "equinox": "J2000",
        "orbit_class": {
            "orbit_class_type": "AMO",
            "orbit_class_description": "Near-Earth asteroid orbits similar to that of 1221 Amor",
            "orbit_class_range": "1.017 AU < q (perihelion) < 1.3 AU"
        }
    },
    "is_sentry_object": false
}